[{"OBJECT_NAME":"SITRO-AIS 5 (KATYS)","OBJECT_ID":"2023-091L","EPOCH":"2026-03-09T22:36:44.932608","MEAN_MOTION":15.27079182,"ECCENTRICITY":0.00133776,"INCLINATION":97.5176,"RA_OF_ASC_NODE":132.0172,"ARG_OF_PERICENTER":94.5677,"MEAN_ANOMALY":265.709,"EPHEMERIS_TYPE":0,"CLASSIFICATION_TYPE":"U","NORAD_CAT_ID":57176,"ELEMENT_SET_NO":999,"REV_AT_EPOCH":14918,"BSTAR":0.00057530772,"MEAN_MOTION_DOT":0.00015262,"MEAN_MOTION_DDOT":0},{"OBJECT_NAME":"STARLINK-36080","OBJECT_ID":"2025-278L","EPOCH":"2026-03-09T13:16:27.554880","MEAN_MOTION":15.27585483,"ECCENTRICITY":0.0002022,"INCLINATION":43.0031,"RA_OF_ASC_NODE":115.5345,"ARG_OF_PERICENTER":263.5318,"MEAN_ANOMALY":96.5303,"EPHEMERIS_TYPE":0,"CLASSIFICATION_TYPE":"U","NORAD_CAT_ID":66801,"ELEMENT_SET_NO":999,"REV_AT_EPOCH":1518,"BSTAR":0.00075479,"MEAN_MOTION_DOT":0.0002057,"MEAN_MOTION_DDOT":0}]
